[{"OBJECT_NAME":"TRANSPORTER-12 OBJECT AZ","OBJECT_ID":"2025-009AZ","EPOCH":"2026-03-09T17:02:46.667040","MEAN_MOTION":15.30349724,"ECCENTRICITY":9.87e-5,"INCLINATION":97.3981,"RA_OF_ASC_NODE":151.9913,"ARG_OF_PERICENTER":45.3581,"MEAN_ANOMALY":314.774,"EPHEMERIS_TYPE":0,"CLASSIFICATION_TYPE":"U","NORAD_CAT_ID":62656,"ELEMENT_SET_NO":999,"REV_AT_EPOCH":6379,"BSTAR":0.00054902545,"MEAN_MOTION_DOT":0.00016057,"MEAN_MOTION_DDOT":0},{"OBJECT_NAME":"STARLINK-34528","OBJECT_ID":"2025-133H","EPOCH":"2026-03-09T10:48:59.064768","MEAN_MOTION":15.30170743,"ECCENTRICITY":0.00013093,"INCLINATION":53.16,"RA_OF_ASC_NODE":117.7817,"ARG_OF_PERICENTER":68.2412,"MEAN_ANOMALY":291.8728,"EPHEMERIS_TYPE":0,"CLASSIFICATION_TYPE":"U","NORAD_CAT_ID":64479,"ELEMENT_SET_NO":999,"REV_AT_EPOCH":4113,"BSTAR":0.00027991027,"MEAN_MOTION_DOT":7.932e-5,"MEAN_MOTION_DDOT":0}]
